CIC_OEM_VERS = 2.0
CREATION_DATE = 2024-12-08T21:19:00.011592
ORIGINATOR = ISAE-SUPAERO


META_START
OBJECT_NAME = PLEIADES-NEO3
OBJECT_ID = PLEIADES-NEO3
CENTER_NAME = Earth
REF_FRAME = EME2000
TIME_SYSTEM = UTC
START_TIME = 2024-12-08T12:40:59.976
USEABLE_START_TIME = 2024-12-08T12:40:59.976
USEABLE_STOP_TIME = 2024-12-10T22:50:59.976
STOP_TIME = 2024-12-10T22:50:59.976
INTERPOLATION = lagrange
INTERPOLATION_DEGREE = 5
META_STOP



60652 45659.976 3991.2498 5753.3498 14.681943 0.8423001000000001 -0.60410311 7.4732823
60652 46259.976 3653.7237999999998 4249.758400000001 4191.008 -1.920565 -4.2201332 5.9528058
60652 46859.976 1843.0263 1033.1311 6671.3087000000005 -3.9024424 -6.1251356999999995 2.0267379
60652 47459.976 -710.0772900000001 -2599.9981000000002 6458.8769 -4.3101109 -5.5616082 -2.7097480000000003
60652 48059.976 -2976.8546 -5185.7738 3639.5456000000004 -2.9806922 -2.7546744 -6.3596762
60652 48659.976 -4042.4286 -5679.0545999999995 -652.2835799999999 -0.44621488 1.1682199 -7.4413024
60652 49259.976 -3470.149 -3871.8245 -4677.3558 2.2725398 4.6267646000000004 -5.515726399999999
60652 49859.976 -1491.5223999999998 -494.29489 -6806.6679 4.0745821 6.2155402 -1.3458403
60652 50459.976 1087.8591000000001 3080.1761 -6178.6432 4.2210393 5.2809265 3.3633904
60652 51059.976 3227.3773 5409.304099999999 -3046.3494 2.659988 2.2098842 6.7098457
60652 51659.976 4061.833 5550.9956 1321.5115 0.024213973 -1.7533188 7.3356899
60652 52259.976 3256.8385000000003 3452.0775 5155.3499 -2.6125972 -4.9969681 4.9963217
60652 52859.976 1141.7987 -35.759859 6911.889099999999 -4.190902299999999 -6.222987600000001 0.6555496900000001
60652 53459.976 -1431.2388 -3509.0902 5888.094 -4.086512 -4.9500991999999995 -3.9511781000000004
60652 54059.976 -3428.0033 -5570.1381 2489.5716 -2.3322181 -1.6732547 -6.980658000000001
60652 54659.976 -4037.4272 -5377.5736 -1916.3782 0.37366074 2.2946516000000003 -7.1881816
60652 55259.976 -3010.0942000000005 -3004.9039 -5543.6717 2.9298161 5.334938500000001 -4.474858599999999
60652 55859.976 -762.04734 586.1418100000001 -6916.1944 4.2989245 6.2134084000000005 0.057276662000000006
60652 56459.976 1793.2972 3940.3856 -5490.9868 3.9201718000000003 4.5681727 4.5555277
60652 57059.976 3620.5942999999997 5695.6435 -1834.0234 1.9605772 1.0804396 7.213834100000001
60652 57659.976 3982.4249 5145.039 2569.5766000000003 -0.7964778800000001 -2.8504971 6.9466154
60652 58259.976 2727.9602000000004 2506.3837000000003 5927.5235 -3.2293803 -5.6261493 3.8638993
60652 58859.976 366.21698 -1150.7558999999999 6877.9275 -4.3549409 -6.1232438 -0.79121606
60652 59459.976 -2145.0217000000002 -4347.3815 5051.0109 -3.7015271 -4.1203265 -5.1171384
60652 60059.976 -3782.7955 -5775.5873 1169.5665000000001 -1.561457 -0.46643467 -7.366081400000001
60652 60659.976 -3888.8906 -4865.7018 -3184.7246 1.2113118999999999 3.3808109 -6.640699400000001
60652 61259.976 -2421.3062999999997 -1987.8667 -6242.918000000001 3.5002482 5.8693816 -3.2220084000000004
60652 61859.976 25.9645 1696.2753 -6776.9587 4.3676021 5.975236600000001 1.5040248999999999
60652 62459.976 2462.193 4693.371 -4562.4565 3.4676945999999997 3.6639328 5.6173292
60652 63059.976 3902.6281000000004 5792.2182999999995 -497.91589000000005 1.1652999 -0.12928146000000001 7.453219600000001
60652 63659.976 3766.3931000000002 4550.8391 3768.7788 -1.6013479 -3.8609535000000004 6.2711866
60652 64259.976 2113.5442000000003 1476.4516 6515.9531 -3.7135911000000004 -6.0266324000000004 2.5680187
60652 64859.976 -387.33468 -2190.5519 6642.5878 -4.3321468 -5.770583800000001 -2.161156
60652 65459.976 -2731.9891000000002 -4977.1754 4095.9759 -3.2095059999999997 -3.1916268 -6.0336144
60652 66059.976 -3973.5004 -5754.8263 -105.73517 -0.78297007 0.69179039 -7.4808944
60652 66659.976 -3605.2019 -4201.070900000001 -4264.2137999999995 1.9678213 4.3053172 -5.8900121
60652 67259.976 -1774.7564 -943.3820400000001 -6689.3297999999995 3.9177798 6.1701017 -1.9097142
60652 67859.976 774.37896 2697.4263 -6403.1961 4.2769278 5.5297535 2.8467896
60652 68459.976 3009.8048 5245.0239 -3514.7153 2.9065947000000003 2.6547722 6.443244399999999
60652 69059.976 4024.878 5666.7524 799.18308 0.35760099 -1.2990880999999999 7.4296283
60652 69659.976 3406.9602000000004 3789.9275000000002 4785.3395 -2.3359388 -4.7281341 5.406143500000001
60652 70259.976 1412.3884 380.57984999999996 6837.169400000001 -4.0779162 -6.2360169 1.1947503
60652 70859.976 -1152.4501 -3182.9289 6123.188099999999 -4.171838 -5.226183600000001 -3.4899016
60652 71459.976 -3252.5306 -5463.0723 2934.6252000000004 -2.582953 -2.1075548 -6.7658358
60652 72059.976 -4040.0878 -5538.5876 -1441.3026000000002 0.049778958000000005 1.8643261 -7.306615
60652 72659.976 -3195.6403999999998 -3376.3940000000002 -5234.8988 2.6600655000000004 5.0812541 -4.8947582
60652 73259.976 -1064.98 144.58551 -6915.284000000001 4.1932295 6.2443406999999995 -0.5110414200000001
60652 73859.976 1494.1245000000001 3607.2359 -5805.8318 4.0384364 4.893236600000001 4.0812543
60652 74459.976 3452.5283 5618.6851 -2352.3459 2.2506236 1.5608557 7.0294812
60652 75059.976 4013.222 5355.97 2053.7512 -0.4457953 -2.4032133 7.1386152
60652 75659.976 2946.052 2921.6579 5620.7690999999995 -2.9659272999999997 -5.4046906 4.3675758
60652 76259.976 687.47034 -695.2212900000001 6912.793000000001 -4.2885225 -6.2194051 -0.19006183999999998
60652 76859.976 -1848.5547 -4030.6567999999997 5404.2483 -3.8682952 -4.5086537 -4.6613532
60652 77459.976 -3637.146 -5735.9633 1703.4842 -1.8847428 -0.9769479700000001 -7.2392649
60652 78059.976 -3957.0064 -5124.754 -2687.8729 0.85380418 2.9399131 -6.8844873
60652 78659.976 -2684.408 -2450.6861000000004 -5996.3906 3.2376615 5.6594659 -3.7602275
60652 79259.976 -335.84258 1205.9073 -6896.0988 4.3183908 6.1049554 0.8656959200000001
60652 79859.976 2146.7092000000002 4378.4555 -5025.3975 3.6676219999999997 4.0995889 5.1559248
60652 80459.976 3763.3835 5785.786599999999 -1125.8217 1.5301808000000001 0.42392757999999997 7.3854239
60652 81059.976 3854.425 4848.0662999999995 3229.5066 -1.2386383 -3.4409718 6.617962
60652 81659.976 2379.3503 1940.4925 6269.2095 -3.5039204 -5.908038800000001 3.1572912
60652 82259.976 -61.865032 -1755.7454 6759.68 -4.3441821 -5.970847300000001 -1.5964738
60652 82859.976 -2478.0531 -4742.1478 4510.401 -3.4182358 -3.6124262 -5.673904
60652 83459.976 -3889.8124 -5806.0521 426.79848 -1.1159713999999998 0.20021522 -7.4596747
60652 84059.976 -3727.6074 -4520.8274 -3828.9522 1.6374068 3.9330099 -6.2266121000000005
60652 84659.976 -2060.1049 -1409.8253 -6535.1185000000005 3.7251769 6.0725156 -2.4783399
60652 85259.976 437.86761 2269.6922999999997 -6600.6641 4.3096331 5.7626939 2.2678379
60652 85859.976 2758.3426 5032.519200000001 -3997.1764 3.153592 3.122252 6.1088383
60653 59.976 3962.9901 5759.9812 225.76978 0.71876703 -0.78678974 7.476683100000001
60653 659.976 3562.0437 4153.5982 4358.0079000000005 -2.0069848 -4.3778147 5.8124581
60653 1259.976 1712.2795 856.52819 6718.545099999999 -3.9226588000000002 -6.200635800000001 1.7915248
60653 1859.976 -827.00876 -2783.0156 6356.9571 -4.2435876 -5.5049276 -2.9505885
60653 2459.976 -3031.9238 -5297.5199 3419.3446000000004 -2.8478245 -2.582116 -6.4965909
60653 3059.976 -4010.8715 -5669.8072999999995 -904.87783 -0.3009958 1.3840584 -7.4087871
60653 3659.976 -3370.7352 -3753.2266 -4863.3791 2.3595685 4.7804127 -5.3242301
60653 4259.976 -1374.1568 -325.83709999999996 -6861.6022 4.0626221000000005 6.2447689 -1.1051256
60653 4859.976000000001 1173.7727 3232.2473 -6099.275000000001 4.1341217 5.2011217 3.5594351000000004
60653 5459.976000000001 3249.0337000000004 5489.5303 -2877.6352 2.5378328000000003 2.0541253999999998 6.8048261000000005
60653 6059.976000000001 4009.7402 5526.4265000000005 1508.5613 -0.092916438 -1.9380411 7.3012917
60653 6659.976000000001 3144.8186 3322.7848 5281.8442000000005 -2.6883754 -5.1481002 4.8311508000000005
60653 7259.976 1004.1468000000001 -228.80799 6907.4631 -4.1933086 -6.271133799999999 0.40154227
60653 7859.976 -1542.8227 -3688.2332 5732.8768 -3.9948849 -4.84661 -4.1931515
60653 8459.976 -3467.0386000000003 -5658.8573 2237.8385 -2.1785466 -1.4628419 -7.070981300000001
60653 9059.976 -3981.4949 -5329.5375 -2165.5059 0.51082861 2.5061833 -7.1039092
60653 9659.976 -2886.0789 -2845.0107000000003 -5692.2807999999995 3.0008526000000004 5.472187600000001 -4.2555522
60653 10259.976 -622.4555300000001 791.32899 -6909.77 4.2755486000000005 6.2212775 0.32423768000000003
60653 10859.976 1892.5155 4107.8806 -5328.5967 3.8148158 4.4464345000000005 4.7666389
60653 11459.976 3641.6251 5761.522400000001 -1583.3193999999999 1.8104658 0.87186151 7.2771157
60653 12059.976 3917.1881000000003 5083.5942000000005 2805.0731 -0.9225927 -3.0497351 6.834995
60653 12659.976 2611.8219 2353.5255 6060.1883 -3.2727551 -5.7273417 3.6372971
60653 13259.976 257.3371 -1322.107 6875.6873 -4.3015831 -6.0974393000000005 -1.0127749
60653 13859.976 -2200.0984 -4467.0262999999995 4926.1851 -3.6035572000000005 -4.0184855 -5.2609081
60653 14459.976 -3771.1966 -5812.7523 988.34894 -1.4471832 -0.30666897 -7.4015519
60653 15059.976 -3816.4422999999997 -4807.2246 -3348.337 1.3024806000000002 3.5415899 -6.543469
60653 15659.976 -2315.4483 -1853.9560000000001 -6325.3045 3.5241261 5.9551043 -3.0288825999999998
60653 16259.976 124.76596 1851.2458000000001 -6729.2693 4.320606799999999 5.9576934 1.7246255000000001
60653 16859.976 2513.8523999999998 4804.9878 -4397.275900000001 3.3615873 3.5392926000000005 5.7767755
60653 17459.976 3880.9311000000002 5805.4823 -273.70802000000003 1.0345234 -0.32184794 7.4814335000000005
60653 18059.976 3671.6257 4447.6091 3962.4865 -1.7048867 -4.0410944 6.141255500000001
60653 18659.976 1977.8962 1290.9359 6595.179 -3.7398633 -6.1088494 2.3305476
60653 19259.976 -510.49611 -2384.9785 6573.6272 -4.2657206 -5.7177303 -2.3976687
60653 19859.976 -2794.3687000000004 -5105.6247 3912.7408 -3.0814525 -3.0338987000000004 -6.1640994000000005
